ONEWEB-0687             
1 61595U 24188B   25168.45986519  .00000125  00000+0  23703-3 0  9993
2 61595  87.9584  78.5252 0003467  76.8846 283.2680 13.30703981 36145
ONEWEB-0688             
1 61596U 24188C   25167.50230353  .00000108  00000+0  20000-3 0  9995
2 61596  87.9599  78.7165 0001192  69.7459 290.3808 13.30687274 37723
ONEWEB-0689             
1 61597U 24188D   25168.03443182 -.00000059  00000+0 -20145-3 0  9998
2 61597  87.8806  93.8706 0002234  70.4411 289.6958 13.11414896 34729
ONEWEB-0690             
1 61598U 24188E   25167.51051200 -.00000412  00000+0 -11981-2 0  9997
2 61598  87.8858  93.9160 0001833 100.7128 259.4206 13.11414461 34817
ONEWEB-0691             
1 61599U 24188F   25168.19212784 -.00000212  00000+0 -63348-3 0  9992
2 61599  87.8753  93.8125 0001664  72.0915 288.0394 13.11418291 34922
ONEWEB-0692             
1 61600U 24188G   25168.51764774 -.00000419  00000+0 -12171-2 0  9998
2 61600  87.8835  93.7959 0002924  80.3672 279.7786 13.11417778 34899
ONEWEB-0693             
1 61601U 24188H   25168.47559921 -.00013456  00000+0 -28521-1 0  9990
2 61601  87.9588  78.5439 0004003  79.9857 280.1734 13.30872253 36074
ONEWEB-0695             
1 61602U 24188J   25168.03612154 -.00000086  00000+0 -27900-3 0  9998
2 61602  87.8841  93.8758 0002554  72.3204 287.8203 13.11413278 34858
